NORAD_CAT_ID,OBJECT_NAME,OBJECT_TYPE,EPOCH,MEAN_MOTION,ECCENTRICITY,INCLINATION,RA_OF_ASC_NODE,ARG_OF_PERICENTER,MEAN_ANOMALY,BSTAR,MEAN_MOTION_DOT,MEAN_MOTION_DDOT,TLE_LINE0,TLE_LINE1,TLE_LINE2,SEMIMAJOR_AXIS,PERIOD,APOGEE,PERIGEE,DECAYED
52646.0,STARLINK-3832,PAYLOAD,2024-01-04 20:19:15,15.08838743,0.0001542,53.2158,227.3481,106.876,253.2402,-7.7282e-07,-3e-06,0.0,0 STARLINK-3832,1 52646U 22052BA  24004.84671062 -.00000300  00000-0 -77282-6 0  9995,2 52646  53.2158 227.3481 0001542 106.8760 253.2402 15.08838743 91146,6917.884,95.438,540.816,538.682,0.0
52646.0,STARLINK-3832,PAYLOAD,2024-01-05 20:10:03,15.08837606,0.0001442,53.2153,222.8877,99.7879,260.3276,0.0001256,1.711e-05,0.0,0 STARLINK-3832,1 52646U 22052BA  24005.84031509  .00001711  00000-0  12560-3 0  9992,2 52646  53.2153 222.8877 0001442  99.7879 260.3276 15.08837606 91662,6917.888,95.438,540.75,538.755,0.0
52646.0,STARLINK-3832,PAYLOAD,2024-01-05 21:45:26,15.08837728,0.0001365,53.2149,222.59,90.2018,269.9131,0.000121,1.638e-05,0.0,0 STARLINK-3832,1 52646U 22052BA  24005.90655551  .00001638  00000-0  12100-3 0  9996,2 52646  53.2149 222.5900 0001365  90.2018 269.9131 15.08837728 91307,6917.887,95.438,540.697,538.808,0.0
52646.0,STARLINK-3832,PAYLOAD,2024-01-06 21:36:13,15.08843786,0.000141,53.2149,218.1306,89.1065,271.0089,0.00018138,2.6e-05,0.0,0 STARLINK-3832,1 52646U 22052BA  24006.90015412  .00002600  00000-0  18138-3 0  9990,2 52646  53.2149 218.1306 0001410  89.1065 271.0089 15.08843786 91451,6917.869,95.437,540.709,538.758,0.0
52646.0,STARLINK-3832,PAYLOAD,2024-01-06 23:11:36,15.08844478,0.0001406,53.2149,217.8333,91.2236,268.8918,0.00018813,2.708e-05,0.0,0 STARLINK-3832,1 52646U 22052BA  24006.96639369  .00002708  00000-0  18813-3 0  9998,2 52646  53.2149 217.8333 0001406  91.2236 268.8918 15.08844478 91832,6917.867,95.437,540.704,538.759,0.0
52646.0,STARLINK-3832,PAYLOAD,2024-01-07 19:51:37,15.08837936,0.0001416,53.2148,213.9667,94.2161,265.8992,5.2482e-05,5.47e-06,0.0,0 STARLINK-3832,1 52646U 22052BA  24007.82751854  .00000547  00000-0  52482-4 0  9998,2 52646  53.2148 213.9667 0001416  94.2161 265.8992 15.08837936 91963,6917.887,95.438,540.731,538.772,0.0
52646.0,STARLINK-3832,PAYLOAD,2024-01-08 13:20:51,15.08842888,0.0001422,53.2148,210.6947,96.8073,263.3081,9.3837e-05,1.206e-05,0.0,0 STARLINK-3832,1 52646U 22052BA  24008.55615673  .00001206  00000-0  93837-4 0  9999,2 52646  53.2148 210.6947 0001422  96.8073 263.3081 15.08842888 91701,6917.872,95.437,540.72,538.753,0.0
52646.0,STARLINK-3832,PAYLOAD,2024-01-08 19:42:24,15.088478,0.0001399,53.2156,209.506,97.2614,262.8537,9.5426e-05,1.231e-05,0.0,0 STARLINK-3832,1 52646U 22052BA  24008.82111270  .00001231  00000-0  95426-4 0  9997,2 52646  53.2156 209.5060 0001399  97.2614 262.8537 15.08847800 92117,6917.857,95.437,540.689,538.754,0.0
52646.0,STARLINK-3832,PAYLOAD,2024-01-09 19:33:11,15.08844346,0.0001396,53.2155,205.0465,87.4314,272.6838,0.0001183,1.596e-05,0.0,0 STARLINK-3832,1 52646U 22052BA  24009.81471419  .00001596  00000-0  11830-3 0  9991,2 52646  53.2155 205.0465 0001396  87.4314 272.6838 15.08844346 92262,6917.867,95.437,540.698,538.766,0.0
52646.0,STARLINK-3832,PAYLOAD,2024-01-10 11:27:02,15.08860984,0.0001349,53.2154,202.0714,96.6331,263.4815,-0.0002173,-3.747e-05,0.0,0 STARLINK-3832,1 52646U 22052BA  24010.47711264 -.00003747  00000-0 -21730-3 0  9992,2 52646  53.2154 202.0714 0001349  96.6331 263.4815 15.08860984 91992,6917.816,95.436,540.614,538.748,0.0
52646.0,STARLINK-3832,PAYLOAD,2024-01-10 19:23:58,15.08840215,0.0001407,53.2154,200.5852,93.1618,266.9535,2.3874e-05,9.2e-07,0.0,0 STARLINK-3832,1 52646U 22052BA  24010.80831757  .00000092  00000-0  23874-4 0  9999,2 52646  53.2154 200.5852 0001407  93.1618 266.9535 15.08840215 92413,6917.88,95.438,540.718,538.771,0.0
52646.0,STARLINK-3832,PAYLOAD,2024-01-11 12:53:13,15.08841479,0.0001337,53.2151,197.3129,102.3966,257.7175,2.334e-05,8.4e-07,0.0,0 STARLINK-3832,1 52646U 22052BA  24011.53695706  .00000084  00000-0  23340-4 0  9991,2 52646  53.2151 197.3129 0001337 102.3966 257.7175 15.08841479 92153,6917.876,95.437,540.666,538.816,0.0
52646.0,STARLINK-3832,PAYLOAD,2024-01-11 19:14:45,15.08841286,0.0001377,53.2153,196.1243,91.7337,268.3813,5.8666e-05,6.46e-06,0.0,0 STARLINK-3832,1 52646U 22052BA  24011.80191614  .00000646  00000-0  58666-4 0  9993,2 52646  53.2153 196.1243 0001377  91.7337 268.3813 15.08841286 92193,6917.876,95.437,540.694,538.789,0.0
52646.0,STARLINK-3832,PAYLOAD,2024-01-12 11:08:37,15.08842587,0.0001438,53.2149,193.1521,79.0069,281.1085,-3.3372e-05,-8.19e-06,0.0,0 STARLINK-3832,1 52646U 22052BA  24012.46431866 -.00000819  00000-0 -33372-4 0  9993,2 52646  53.2149 193.1521 0001438  79.0069 281.1085 15.08842587 92664,6917.872,95.437,540.732,538.743,0.0
52646.0,STARLINK-3832,PAYLOAD,2024-01-12 17:30:10,15.08832229,0.0001344,53.2153,191.9616,90.1121,270.0025,3.9929e-05,3.48e-06,0.0,0 STARLINK-3832,1 52646U 22052BA  24012.72928522  .00000348  00000-0  39929-4 0  9991,2 52646  53.2153 191.9616 0001344  90.1121 270.0025 15.08832229 92707,6917.904,95.438,540.699,538.839,0.0
52646.0,STARLINK-3832,PAYLOAD,2024-01-13 10:59:24,15.08839113,0.0001341,53.2157,188.6896,92.4089,267.7056,6.5695e-05,7.58e-06,0.0,0 STARLINK-3832,1 52646U 22052BA  24013.45792234  .00000758  00000-0  65695-4 0  9995,2 52646  53.2157 188.6896 0001341  92.4089 267.7056 15.08839113 92446,6917.883,95.438,540.676,538.82,0.0
52646.0,STARLINK-3832,PAYLOAD,2024-01-13 18:56:19,15.08844112,0.0001352,53.2158,187.2035,84.5464,275.5682,0.00010636,1.405e-05,0.0,0 STARLINK-3832,1 52646U 22052BA  24013.78911874  .00001405  00000-0  10636-3 0  9998,2 52646  53.2158 187.2035 0001352  84.5464 275.5682 15.08844112 92861,6917.868,95.437,540.668,538.798,0.0
52646.0,STARLINK-3832,PAYLOAD,2024-01-14 18:47:07,15.08842221,0.0001474,53.2172,182.7444,77.7168,282.3989,0.00014408,2.006e-05,0.0,0 STARLINK-3832,1 52646U 22052BA  24014.78272154  .00002006  00000-0  14408-3 0  9999,2 52646  53.2172 182.7444 0001474  77.7168 282.3989 15.08842221 93014,6917.874,95.437,540.758,538.719,0.0
52646.0,STARLINK-3832,PAYLOAD,2024-01-14 20:22:30,15.08845568,0.000142,53.2171,182.4466,83.3892,276.7262,0.00016784,2.385e-05,0.0,0 STARLINK-3832,1 52646U 22052BA  24014.84895870  .00002385  00000-0  16784-3 0  9991,2 52646  53.2171 182.4466 0001420  83.3892 276.7262 15.08845568 92659,6917.863,95.437,540.711,538.746,0.0
52646.0,STARLINK-3832,PAYLOAD,2024-01-15 10:40:58,15.08843462,0.0001451,53.2169,179.7701,90.8698,269.2461,5.6183e-05,6.06e-06,0.0,0 STARLINK-3832,1 52646U 22052BA  24015.44512222  .00000606  00000-0  56183-4 0  9997,2 52646  53.2169 179.7701 0001451  90.8698 269.2461 15.08843462 92747,6917.87,95.437,540.739,538.731,0.0
52646.0,STARLINK-3832,PAYLOAD,2024-01-15 17:02:31,15.08843032,0.0001348,53.2168,178.5822,82.5492,277.5653,6.3238e-05,7.19e-06,0.0,0 STARLINK-3832,1 52646U 22052BA  24015.71008126  .00000719  00000-0  63238-4 0  9994,2 52646  53.2168 178.5822 0001348  82.5492 277.5653 15.08843032 92784,6917.871,95.437,540.669,538.804,0.0
52646.0,STARLINK-3832,PAYLOAD,2024-01-16 13:42:31,15.0884115,0.0001372,53.217,174.717,96.8771,263.2377,1.0161e-05,-1.26e-06,0.0,0 STARLINK-3832,1 52646U 22052BA  24016.57120366 -.00000126  00000-0  10161-4 0  9990,2 52646  53.2170 174.7170 0001372  96.8771 263.2377 15.08841150 92915,6917.877,95.437,540.691,538.793,0.0
52646.0,STARLINK-3832,PAYLOAD,2024-01-16 18:28:40,15.08847005,0.0001387,53.2166,173.8241,85.029,275.0861,4.6232e-05,4.48e-06,0.0,0 STARLINK-3832,1 52646U 22052BA  24016.76991865  .00000448  00000-0  46232-4 0  9995,2 52646  53.2166 173.8241 0001387  85.0290 275.0861 15.08847005 93310,6917.859,95.437,540.683,538.764,0.0
52646.0,STARLINK-3832,PAYLOAD,2024-01-16 20:04:03,15.08848281,0.0001343,53.2162,173.5258,99.5674,260.547,4.4645e-05,4.23e-06,0.0,0 STARLINK-3832,1 52646U 22052BA  24016.83615671  .00000423  00000-0  44645-4 0  9990,2 52646  53.2162 173.5258 0001343  99.5674 260.5470 15.08848281 92950,6917.855,95.437,540.649,538.791,0.0
52646.0,STARLINK-3832,PAYLOAD,2024-01-17 15:08:43,15.08755522,0.0002149,53.2177,169.9534,98.1748,261.9488,0.001271,0.00019951,0.0,0 STARLINK-3832,1 52646U 22052BA  24017.63106398  .00019951  00000-0  12710-2 0  9992,2 52646  53.2177 169.9534 0002149  98.1748 261.9488 15.08755522 93077,6918.139,95.443,541.49,538.517,0.0
52646.0,STARLINK-3832,PAYLOAD,2024-01-17 16:44:08,15.08718872,0.0002202,53.2177,169.6566,96.3158,263.8085,0.0018201,0.00028702,0.0,0 STARLINK-3832,1 52646U 22052BA  24017.69731686  .00028702  00000-0  18201-2 0  9997,2 52646  53.2177 169.6566 0002202  96.3158 263.8085 15.08718872 93457,6918.251,95.445,541.639,538.592,0.0
52646.0,STARLINK-3832,PAYLOAD,2024-01-18 10:13:20,15.08835302,0.0001583,53.2177,166.3848,95.2504,264.8669,2.9741e-05,1.85e-06,0.0,0 STARLINK-3832,1 52646U 22052BA  24018.42592769  .00000185  00000-0  29741-4 0  9994,2 52646  53.2177 166.3848 0001583  95.2504 264.8669 15.08835302 93567,6917.895,95.438,540.855,538.665,0.0
52646.0,STARLINK-3832,PAYLOAD,2024-01-18 13:24:06,15.0882838,0.0001543,53.2179,165.7909,91.1567,268.9602,0.00018257,2.618e-05,0.0,0 STARLINK-3832,1 52646U 22052BA  24018.55840715  .00002618  00000-0  18257-3 0  9997,2 52646  53.2179 165.7909 0001543  91.1567 268.9602 15.08828380 93212,6917.916,95.438,540.848,538.713,0.0
52646.0,STARLINK-3832,PAYLOAD,2024-01-18 14:59:29,15.08837935,0.0001564,53.2177,165.4933,94.1598,265.9572,4.2935e-05,3.95e-06,0.0,0 STARLINK-3832,1 52646U 22052BA  24018.62464599  .00000395  00000-0  42935-4 0  9998,2 52646  53.2177 165.4933 0001564  94.1598 265.9572 15.08837935 93224,6917.887,95.438,540.834,538.67,0.0
52646.0,STARLINK-3832,PAYLOAD,2024-01-19 14:50:16,15.08840062,0.0001772,53.2186,161.0383,112.2759,247.8421,7.5844e-05,9.19e-06,0.0,0 STARLINK-3832,1 52646U 22052BA  24019.61824401  .00000919  00000-0  75844-4 0  9997,2 52646  53.2186 161.0383 0001772 112.2759 247.8421 15.08840062 93370,6917.88,95.438,540.971,538.519,0.0
